{"type": "FeatureCollection", "features": [ {"type": "Feature", "properties": {"norad_id": 30411, "name": "FENGYUN 1C DEB", "group": "fengyun-1c-debris", "lat": 11.42581269989334, "lon": -90.22870684206003, "alt_km": 813.6135676888416, "timestamp": "2025-12-27T15:27:11.466968+00:00", "meta": {"OBJECT_NAME": "FENGYUN 1C DEB", "OBJECT_ID": "1999-025AEA", "EPOCH": "2025-12-27T05:09:51.443136", "MEAN_MOTION": 14.07733088, "ECCENTRICITY": 0.01239483, "INCLINATION": 98.5808, "RA_OF_ASC_NODE": 271.1125, "ARG_OF_PERICENTER": 65.8377, "MEAN_ANOMALY": 295.5695, "EPHEMERIS_TYPE": 0, "CLASSIFICATION_TYPE": "U", "NORAD_CAT_ID": 30411, "ELEMENT_SET_NO": 999, "REV_AT_EPOCH": 96187, "BSTAR": 0.0018612759, "MEAN_MOTION_DOT": 3.339e-05, "MEAN_MOTION_DDOT": 0}, "tle": {"line1": "1 30411U 99025AEA 25361.21517874  .00003339  00000+0  18613-2 0  9994", "line2": "2 30411  98.5808 271.1125 0123948  65.8377 295.5695 14.07733088961874"}}, "geometry": {"type": "Point", "coordinates": [-90.22870684206003, 11.42581269989334]}}, {"type": "Feature", "properties": {"norad_id": 30413, "name": "FENGYUN 1C DEB", "group": "fengyun-1c-debris", "lat": -51.06404985901061, "lon": -104.34675950518184, "alt_km": 810.0336583626522, "timestamp": "2025-12-27T15:27:11.466978+00:00", "meta": {"OBJECT_NAME": "FENGYUN 1C DEB", "OBJECT_ID": "1999-025AEC", "EPOCH": "2025-12-27T04:33:12.150144", "MEAN_MOTION": 14.32695154, "ECCENTRICITY": 0.00441386, "INCLINATION": 102.0623, "RA_OF_ASC_NODE": 239.6765, "ARG_OF_PERICENTER": 177.8161, "MEAN_ANOMALY": 307.9389, "EPHEMERIS_TYPE": 0, "CLASSIFICATION_TYPE": "U", "NORAD_CAT_ID": 30413, "ELEMENT_SET_NO": 999, "REV_AT_EPOCH": 97346, "BSTAR": 0.0025537817, "MEAN_MOTION_DOT": 6.958e-05, "MEAN_MOTION_DDOT": 0}, "tle": {"line1": "1 30413U 99025AEC 25361.18972396  .00006958  00000+0  25538-2 0  9990", "line2": "2 30413 102.0623 239.6765 0044138 177.8161 307.9389 14.32695154973464"}}, "geometry": {"type": "Point", "coordinates": [-104.34675950518184, -51.06404985901061]}}, {"type": "Feature", "properties": {"norad_id": 30414, "name": "FENGYUN 1C DEB", "group": "fengyun-1c-debris", "lat": 60.60625990281931, "lon": -3.864053971153035, "alt_km": 734.697402187524, "timestamp": "2025-12-27T15:27:11.466988+00:00", "meta": {"OBJECT_NAME": "FENGYUN 1C DEB", "OBJECT_ID": "1999-025AED", "EPOCH": "2025-12-26T23:50:15.310464", "MEAN_MOTION": 14.34352875, "ECCENTRICITY": 0.00576802, "INCLINATION": 99.0807, "RA_OF_ASC_NODE": 158.9593, "ARG_OF_PERICENTER": 147.7439, "MEAN_ANOMALY": 212.7293, "EPHEMERIS_TYPE": 0, "CLASSIFICATION_TYPE": "U", "NORAD_CAT_ID": 30414, "ELEMENT_SET_NO": 999, "REV_AT_EPOCH": 97291, "BSTAR": 0.0029495257, "MEAN_MOTION_DOT": 8.411e-05, "MEAN_MOTION_DDOT": 0}, "tle": {"line1": "1 30414U 99025AED 25360.99323276  .00008411  00000+0  29495-2 0  9998", "line2": "2 30414  99.0807 158.9593 0057680 147.7439 212.7293 14.34352875972914"}}, "geometry": {"type": "Point", "coordinates": [-3.864053971153035, 60.60625990281931]}}, {"type": "Feature", "properties": {"norad_id": 30415, "name": "FENGYUN 1C DEB", "group": "fengyun-1c-debris", "lat": -52.96439570395382, "lon": 74.93500351333326, "alt_km": 959.717130874059, "timestamp": "2025-12-27T15:27:11.466998+00:00", "meta": {"OBJECT_NAME": "FENGYUN 1C DEB", "OBJECT_ID": "1999-025AEE", "EPOCH": "2025-12-26T15:56:20.965920", "MEAN_MOTION": 13.68977813, "ECCENTRICITY": 0.024052, "INCLINATION": 99.6456, "RA_OF_ASC_NODE": 60.9288, "ARG_OF_PERICENTER": 233.6873, "MEAN_ANOMALY": 283.6555, "EPHEMERIS_TYPE": 0, "CLASSIFICATION_TYPE": "U", "NORAD_CAT_ID": 30415, "ELEMENT_SET_NO": 999, "REV_AT_EPOCH": 94068, "BSTAR": 0.00148, "MEAN_MOTION_DOT": 1.518e-05, "MEAN_MOTION_DDOT": 0}, "tle": {"line1": "1 30415U 99025AEE 25360.66413155  .00001518  00000+0  14800-2 0  9994", "line2": "2 30415  99.6456  60.9288 0240520 233.6873 283.6555 13.68977813940686"}}, "geometry": {"type": "Point", "coordinates": [74.93500351333326, -52.96439570395382]}}, {"type": "Feature", "properties": {"norad_id": 30416, "name": "FENGYUN 1C DEB", "group": "fengyun-1c-debris", "lat": 61.69254230473386, "lon": 8.82190487703598, "alt_km": 874.9922721973835, "timestamp": "2025-12-27T15:27:11.467009+00:00", "meta": {"OBJECT_NAME": "FENGYUN 1C DEB", "OBJECT_ID": "1999-025AEF", "EPOCH": "2025-12-27T01:27:23.318784", "MEAN_MOTION": 14.02649717, "ECCENTRICITY": 0.00559108, "INCLINATION": 98.8354, "RA_OF_ASC_NODE": 25.0409, "ARG_OF_PERICENTER": 149.916, "MEAN_ANOMALY": 210.5238, "EPHEMERIS_TYPE": 0, "CLASSIFICATION_TYPE": "U", "NORAD_CAT_ID": 30416, "ELEMENT_SET_NO": 999, "REV_AT_EPOCH": 96825, "BSTAR": 0.00033080214, "MEAN_MOTION_DOT": 4.75e-06, "MEAN_MOTION_DDOT": 0}, "tle": {"line1": "1 30416U 99025AEF 25361.06068656  .00000475  00000+0  33080-3 0  9995", "line2": "2 30416  98.8354  25.0409 0055910 149.9160 210.5238 14.02649717968255"}}, "geometry": {"type": "Point", "coordinates": [8.82190487703598, 61.69254230473386]}}, {"type": "Feature", "properties": {"norad_id": 30417, "name": "FENGYUN 1C DEB", "group": "fengyun-1c-debris", "lat": -25.84429427043105, "lon": 166.98573080987117, "alt_km": 877.5994102707982, "timestamp": "2025-12-27T15:27:11.467019+00:00", "meta": {"OBJECT_NAME": "FENGYUN 1C DEB", "OBJECT_ID": "1999-025AEG", "EPOCH": "2025-12-26T23:19:22.910016", "MEAN_MOTION": 14.14678507, "ECCENTRICITY": 0.0064643, "INCLINATION": 98.694, "RA_OF_ASC_NODE": 350.5816, "ARG_OF_PERICENTER": 79.9044, "MEAN_ANOMALY": 304.6402, "EPHEMERIS_TYPE": 0, "CLASSIFICATION_TYPE": "U", "NORAD_CAT_ID": 30417, "ELEMENT_SET_NO": 999, "REV_AT_EPOCH": 97590, "BSTAR": 0.00031916, "MEAN_MOTION_DOT": 5.84e-06, "MEAN_MOTION_DDOT": 0}, "tle": {"line1": "1 30417U 99025AEG 25360.97179294  .00000584  00000+0  31916-3 0  9993", "line2": "2 30417  98.6940 350.5816 0064643  79.9044 304.6402 14.14678507975909"}}, "geometry": {"type": "Point", "coordinates": [166.98573080987117, -25.84429427043105]}}, {"type": "Feature", "properties": {"norad_id": 30418, "name": "FENGYUN 1C DEB", "group": "fengyun-1c-debris", "lat": 61.65489385489392, "lon": -0.1936552598221372, "alt_km": 557.6182065471976, "timestamp": "2025-12-27T15:27:11.467029+00:00", "meta": {"OBJECT_NAME": "FENGYUN 1C DEB", "OBJECT_ID": "1999-025AEH", "EPOCH": "2025-12-26T23:19:56.186976", "MEAN_MOTION": 14.84402189, "ECCENTRICITY": 0.0110918, "INCLINATION": 98.8413, "RA_OF_ASC_NODE": 162.2921, "ARG_OF_PERICENTER": 70.5302, "MEAN_ANOMALY": 58.148, "EPHEMERIS_TYPE": 0, "CLASSIFICATION_TYPE": "U", "NORAD_CAT_ID": 30418, "ELEMENT_SET_NO": 999, "REV_AT_EPOCH": 803, "BSTAR": 0.00083567, "MEAN_MOTION_DOT": 7.775e-05, "MEAN_MOTION_DDOT": 0}, "tle": {"line1": "1 30418U 99025AEH 25360.97217809  .00007775  00000+0  83567-3 0  9997", "line2": "2 30418  98.8413 162.2921 0110918  70.5302  58.1480 14.84402189  8039"}}, "geometry": {"type": "Point", "coordinates": [-0.1936552598221372, 61.65489385489392]}}, {"type": "Feature", "properties": {"norad_id": 30419, "name": "FENGYUN 1C DEB", "group": "fengyun-1c-debris", "lat": -80.7520087909975, "lon": 38.641957935758235, "alt_km": 828.1902460296033, "timestamp": "2025-12-27T15:27:11.467039+00:00", "meta": {"OBJECT_NAME": "FENGYUN 1C DEB", "OBJECT_ID": "1999-025AEJ", "EPOCH": "2025-12-26T19:49:01.542720", "MEAN_MOTION": 14.18086924, "ECCENTRICITY": 0.00526032, "INCLINATION": 99.242, "RA_OF_ASC_NODE": 308.185, "ARG_OF_PERICENTER": 345.8999, "MEAN_ANOMALY": 70.1957, "EPHEMERIS_TYPE": 0, "CLASSIFICATION_TYPE": "U", "NORAD_CAT_ID": 30419, "ELEMENT_SET_NO": 999, "REV_AT_EPOCH": 97548, "BSTAR": 0.00090042846, "MEAN_MOTION_DOT": 1.824e-05, "MEAN_MOTION_DDOT": 0}, "tle": {"line1": "1 30419U 99025AEJ 25360.82571230  .00001824  00000+0  90043-3 0  9999", "line2": "2 30419  99.2420 308.1850 0052603 345.8999  70.1957 14.18086924975488"}}, "geometry": {"type": "Point", "coordinates": [38.641957935758235, -80.7520087909975]}}, {"type": "Feature", "properties": {"norad_id": 30432, "name": "FENGYUN 1C DEB", "group": "fengyun-1c-debris", "lat": 36.565227477494346, "lon": -105.61949584097384, "alt_km": 765.6818610211767, "timestamp": "2025-12-27T15:27:11.467050+00:00", "meta": {"OBJECT_NAME": "FENGYUN 1C DEB", "OBJECT_ID": "1999-025AET", "EPOCH": "2025-12-27T05:16:53.307552", "MEAN_MOTION": 14.40747251, "ECCENTRICITY": 0.00821488, "INCLINATION": 98.835, "RA_OF_ASC_NODE": 260.5675, "ARG_OF_PERICENTER": 295.8812, "MEAN_ANOMALY": 63.3923, "EPHEMERIS_TYPE": 0, "CLASSIFICATION_TYPE": "U", "NORAD_CAT_ID": 30432, "ELEMENT_SET_NO": 999, "REV_AT_EPOCH": 98943, "BSTAR": 0.0008168275, "MEAN_MOTION_DOT": 2.669e-05, "MEAN_MOTION_DDOT": 0}, "tle": {"line1": "1 30432U 99025AET 25361.22006143  .00002669  00000+0  81683-3 0  9993", "line2": "2 30432  98.8350 260.5675 0082148 295.8812  63.3923 14.40747251989430"}}, "geometry": {"type": "Point", "coordinates": [-105.61949584097384, 36.565227477494346]}}, {"type": "Feature", "properties": {"norad_id": 30434, "name": "FENGYUN 1C DEB", "group": "fengyun-1c-debris", "lat": 24.607734210788056, "lon": -16.16909632409113, "alt_km": 1011.1564653667147, "timestamp": "2025-12-27T15:27:11.467060+00:00", "meta": {"OBJECT_NAME": "FENGYUN 1C DEB", "OBJECT_ID": "1999-025AEV", "EPOCH": "2025-12-27T05:01:21.873216", "MEAN_MOTION": 13.90663065, "ECCENTRICITY": 0.01211899, "INCLINATION": 99.0004, "RA_OF_ASC_NODE": 347.5726, "ARG_OF_PERICENTER": 191.6443, "MEAN_ANOMALY": 179.1412, "EPHEMERIS_TYPE": 0, "CLASSIFICATION_TYPE": "U", "NORAD_CAT_ID": 30434, "ELEMENT_SET_NO": 999, "REV_AT_EPOCH": 95908, "BSTAR": 0.00029616615, "MEAN_MOTION_DOT": 3.49e-06, "MEAN_MOTION_DDOT": 0}, "tle": {"line1": "1 30434U 99025AEV 25361.20928094  .00000349  00000+0  29617-3 0  9993", "line2": "2 30434  99.0004 347.5726 0121189 191.6443 179.1412 13.90663065959087"}}, "geometry": {"type": "Point", "coordinates": [-16.16909632409113, 24.607734210788056]}}]}